NORAD_CAT_ID,OBJECT_NAME,OBJECT_TYPE,EPOCH,MEAN_MOTION,ECCENTRICITY,INCLINATION,RA_OF_ASC_NODE,ARG_OF_PERICENTER,MEAN_ANOMALY,BSTAR,MEAN_MOTION_DOT,MEAN_MOTION_DDOT,TLE_LINE0,TLE_LINE1,TLE_LINE2,SEMIMAJOR_AXIS,PERIOD,APOGEE,PERIGEE,DECAYED
50827.0,STARLINK-3329,PAYLOAD,2022-06-30 04:13:52,15.08835234,0.000251,53.2185,102.8449,60.7854,299.3389,0.00014532,2.025e-05,0.0,0 STARLINK-3329,1 50827U 22001AA  22181.17630389  .00002025  00000-0  14532-3 0  9995,2 50827  53.2185 102.8449 0002510  60.7854 299.3389 15.08835234 28095,6917.895,95.438,541.496,538.024,0.0
50827.0,STARLINK-3329,PAYLOAD,2022-06-30 07:24:38,15.08836624,0.000252,53.2186,102.2502,61.01600000000001,299.1084,0.00015272,2.143e-05,0.0,0 STARLINK-3329,1 50827U 22001AA  22181.30878332  .00002143  00000-0  15272-3 0  9995,2 50827  53.2186 102.2502 0002520  61.0160 299.1084 15.08836624 26840,6917.891,95.438,541.499,538.012,0.0
50827.0,STARLINK-3329,PAYLOAD,2022-07-01 12:01:35,15.08835961,0.0002531,53.2183,96.8982,62.6801,297.4449,1.074e-05,-1.18e-06,0.0,0 STARLINK-3329,1 50827U 22001AA  22182.50110744 -.00000118  00000-0  10740-4 0  9991,2 50827  53.2183  96.8982 0002531  62.6801 297.4449 15.08835961 28298,6917.893,95.438,541.509,538.007,0.0
50827.0,STARLINK-3329,PAYLOAD,2022-07-01 21:33:54,15.08839934,0.0002546,53.2187,95.1138,62.7817,297.3435,9.1951e-06,-1.42e-06,0.0,0 STARLINK-3329,1 50827U 22001AA  22182.89854490 -.00000142  00000-0  91951-5 0  9997,2 50827  53.2187  95.1138 0002546  62.7817 297.3435 15.08839934 27085,6917.880999999999,95.438,541.507,537.984,0.0
50827.0,STARLINK-3329,PAYLOAD,2022-07-02 02:20:03,15.08843757,0.0002575,53.2187,94.2215,64.0691,296.0566,1.1029e-05,-1.13e-06,0.0,0 STARLINK-3329,1 50827U 22001AA  22183.09726236 -.00000113  00000-0  11029-4 0  9991,2 50827  53.2187  94.2215 0002575  64.0691 296.0566 15.08843757 28381,6917.869000000002,95.437,541.515,537.953,0.0
50827.0,STARLINK-3329,PAYLOAD,2022-07-02 03:55:26,15.08844215,0.0002583,53.2187,93.924,64.4829,295.643,1.5572999999999998e-05,-4.1e-07,0.0,0 STARLINK-3329,1 50827U 22001AA  22183.16350180 -.00000041  00000-0  15573-4 0  9998,2 50827  53.2187  93.9240 0002583  64.4829 295.6430 15.08844215 27127,6917.868,95.437,541.519,537.946,0.0
50827.0,STARLINK-3329,PAYLOAD,2022-07-02 21:24:39,15.08848518,0.0002579,53.2185,90.6532,66.5014,293.6249,0.00014038,1.947e-05,0.0,0 STARLINK-3329,1 50827U 22001AA  22183.89212928  .00001947  00000-0  14038-3 0  9994,2 50827  53.2185  90.6532 0002579  66.5014 293.6249 15.08848518 28506,6917.854,95.437,541.503,537.935,0.0
50827.0,STARLINK-3329,PAYLOAD,2022-07-03 10:07:45,15.08849297,0.0002541,53.2187,88.2744,65.6749,294.4508,-3.6936e-06,-3.47e-06,0.0,0 STARLINK-3329,1 50827U 22001AA  22184.42205191 -.00000347  00000-0 -36936-5 0  9996,2 50827  53.2187  88.2744 0002541  65.6749 294.4508 15.08849297 27310,6917.852,95.437,541.475,537.9590000000002,0.0
50827.0,STARLINK-3329,PAYLOAD,2022-07-03 21:15:27,15.08843609,0.0002485,53.2187,86.1928,65.3386,294.7864,7.0224e-05,8.3e-06,0.0,0 STARLINK-3329,1 50827U 22001AA  22184.88573232  .00000830  00000-0  70224-4 0  9992,2 50827  53.2187  86.1928 0002485  65.3386 294.7864 15.08843609 27388,6917.869000000002,95.437,541.453,538.015,0.0
50827.0,STARLINK-3329,PAYLOAD,2022-07-04 03:37:00,15.08838646,0.0002424,53.2187,85.0032,65.493,294.6315,-1.8828e-05,-5.88e-06,0.0,0 STARLINK-3329,1 50827U 22001AA  22185.15069786 -.00000588  00000-0 -18828-4 0  9991,2 50827  53.2187  85.0032 0002424  65.4930 294.6315 15.08838646 28691,6917.885,95.438,541.4259999999998,538.073,0.0
50827.0,STARLINK-3329,PAYLOAD,2022-07-04 09:58:34,15.08823332,0.00024,53.2183,83.8147,63.8359,296.288,-0.00014358,-2.572e-05,0.0,0 STARLINK-3329,1 50827U 22001AA  22185.41567354 -.00002572  00000-0 -14358-3 0  9992,2 50827  53.2183  83.8147 0002400  63.8359 296.2880 15.08823332 28737,6917.931,95.439,541.457,538.136,0.0
50827.0,STARLINK-3329,PAYLOAD,2022-07-04 22:41:39,15.08825851,0.0002393,53.2188,81.4356,65.328,294.7961,-6.8192e-05,-1.373e-05,0.0,0 STARLINK-3329,1 50827U 22001AA  22185.94559257 -.00001373  00000-0 -68192-4 0  9997,2 50827  53.2188  81.4356 0002393  65.3280 294.7961 15.08825851 27548,6917.924,95.438,541.444,538.133,0.0
50827.0,STARLINK-3329,PAYLOAD,2022-07-05 03:27:48,15.08828833,0.0002402,53.2188,80.5438,66.1354,293.9890000000001,-3.6823e-05,-8.74e-06,0.0,0 STARLINK-3329,1 50827U 22001AA  22186.14431190 -.00000874  00000-0 -36823-4 0  9996,2 50827  53.2188  80.5438 0002402  66.1354 293.9890 15.08828833 28840,6917.915,95.438,541.441,538.118,0.0
50827.0,STARLINK-3329,PAYLOAD,2022-07-05 09:49:21,15.08830774,0.0002399,53.2187,79.3545,66.2603,293.8640000000001,-2.4988e-05,-6.86e-06,0.0,0 STARLINK-3329,1 50827U 22001AA  22186.40927228 -.00000686  00000-0 -24988-4 0  9997,2 50827  53.2187  79.3545 0002399  66.2603 293.8640 15.08830774 27610,6917.909000000002,95.438,541.433,538.114,0.0
50827.0,STARLINK-3329,PAYLOAD,2022-07-05 20:57:03,15.08833942,0.0002319,53.219,77.2728,65.9965,294.127,2.0393e-05,3.6e-07,0.0,0 STARLINK-3329,1 50827U 22001AA  22186.87295164  .00000036  00000-0  20393-4 0  9998,2 50827  53.2190  77.2728 0002319  65.9965 294.1270 15.08833942 27683,6917.899,95.438,541.368,538.16,0.0
50827.0,STARLINK-3329,PAYLOAD,2022-07-06 01:43:12,15.08836697,0.0002367,53.2189,76.3809,68.3231,291.8013,4.8849e-05,4.89e-06,0.0,0 STARLINK-3329,1 50827U 22001AA  22187.07167101  .00000489  00000-0  48849-4 0  9998,2 50827  53.2189  76.3809 0002367  68.3231 291.8013 15.08836697 28980,6917.89,95.438,541.393,538.118,0.0
50827.0,STARLINK-3329,PAYLOAD,2022-07-06 09:40:08,15.08837143,0.0002374,53.2189,74.8942,69.1741,290.9505,0.00010589,1.397e-05,0.0,0 STARLINK-3329,1 50827U 22001AA  22187.40287149  .00001397  00000-0  10589-3 0  9998,2 50827  53.2189  74.8942 0002374  69.1741 290.9505 15.08837143 27762,6917.889,95.438,541.396,538.112,0.0
50827.0,STARLINK-3329,PAYLOAD,2022-07-07 01:33:59,15.08843425,0.0002374,53.2189,71.9206,69.9335,290.1913,0.00024211,3.567e-05,0.0,0 STARLINK-3329,1 50827U 22001AA  22188.06526995  .00003567  00000-0  24211-3 0  9994,2 50827  53.2189  71.9206 0002374  69.9335 290.1913 15.08843425 27866,6917.87,95.437,541.377,538.0930000000002,0.0
50827.0,STARLINK-3329,PAYLOAD,2022-07-07 20:38:36,15.08850931,0.0002435,53.2191,68.3525,71.6728,288.4529,0.00021951,3.208e-05,0.0,0 STARLINK-3329,1 50827U 22001AA  22188.86014716  .00003208  00000-0  21951-3 0  9995,2 50827  53.2191  68.3525 0002435  71.6728 288.4529 15.08850931 29255,6917.847,95.437,541.396,538.0269999999998,0.0
50827.0,STARLINK-3329,PAYLOAD,2022-07-08 01:24:46,15.08848988,0.0002368,53.2181,67.4605,71.4797,288.6452,0.00017287,2.465e-05,0.0,0 STARLINK-3329,1 50827U 22001AA  22189.05886812  .00002465  00000-0  17287-3 0  9992,2 50827  53.2181  67.4605 0002368  71.4797 288.6452 15.08848988 28011,6917.853,95.437,541.356,538.08,0.0
50827.0,STARLINK-3329,PAYLOAD,2022-07-08 20:29:23,15.08849326,0.0002336,53.2179,63.8912,71.8926,288.232,8.1618e-05,1.011e-05,0.0,0 STARLINK-3329,1 50827U 22001AA  22189.85374317  .00001011  00000-0  81618-4 0  9998,2 50827  53.2179  63.8912 0002336  71.8926 288.2320 15.08849326 28132,6917.852,95.437,541.3330000000002,538.101,0.0
50827.0,STARLINK-3329,PAYLOAD,2022-07-09 02:50:56,15.08836438,0.0002213,53.2183,62.7026,71.9132,288.2101,-0.00012661,-2.303e-05,0.0,0 STARLINK-3329,1 50827U 22001AA  22190.11870935 -.00002303  00000-0 -12661-3 0  9994,2 50827  53.2183  62.7026 0002213  71.9132 288.2101 15.08836438 29447,6917.891,95.438,541.2869999999998,538.225,0.0
50827.0,STARLINK-3329,PAYLOAD,2022-07-09 09:12:29,15.08836139,0.0002131,53.2183,61.5127,74.8921,285.2307,-0.00010855,-2.015e-05,0.0,0 STARLINK-3329,1 50827U 22001AA  22190.38366911 -.00002015  00000-0 -10855-3 0  9990,2 50827  53.2183  61.5127 0002131  74.8921 285.2307 15.08836139 28210,6917.892,95.438,541.231,538.283,0.0
50827.0,STARLINK-3329,PAYLOAD,2022-07-09 17:09:24,15.08836196,0.0002134,53.2183,60.0262,71.4031,288.7193,1.6181e-06,-2.63e-06,0.0,0 STARLINK-3329,1 50827U 22001AA  22190.71486991 -.00000263  00000-0  16181-5 0  9990,2 50827  53.2183  60.0262 0002134  71.4031 288.7193 15.08836196 28261,6917.892,95.438,541.2330000000002,538.281,0.0
50827.0,STARLINK-3329,PAYLOAD,2022-07-10 02:41:43,15.08842442,0.0002206,53.2178,58.2416,72.4749,287.6484,9.9091e-05,1.289e-05,0.0,0 STARLINK-3329,1 50827U 22001AA  22191.11230758  .00001289  00000-0  99091-4 0  9991,2 50827  53.2178  58.2416 0002206  72.4749 287.6484 15.08842442 29591,6917.873000000001,95.437,541.264,538.212,0.0
50827.0,STARLINK-3329,PAYLOAD,2022-07-10 20:10:57,15.08839705,0.0002163,53.2169,54.9708,74.0022,286.1208,6.9443e-05,8.17e-06,0.0,0 STARLINK-3329,1 50827U 22001AA  22191.84094897  .00000817  00000-0  69443-4 0  9997,2 50827  53.2169  54.9708 0002163  74.0022 286.1208 15.08839705 28430,6917.880999999999,95.438,541.243,538.25,0.0
50827.0,STARLINK-3329,PAYLOAD,2022-07-11 02:32:30,15.08838914,0.0002209,53.2176,53.7814,73.6821,286.4414,4.7248e-05,4.64e-06,0.0,0 STARLINK-3329,1 50827U 22001AA  22192.10591008  .00000464  00000-0  47248-4 0  9990,2 50827  53.2176  53.7814 0002209  73.6821 286.4414 15.08838914 29744,6917.884,95.438,541.2769999999998,538.221,0.0
50827.0,STARLINK-3329,PAYLOAD,2022-07-11 07:18:39,15.08841286,0.0002068,53.2175,52.889,72.1688,287.953,0.00010349,1.359e-05,0.0,0 STARLINK-3329,1 50827U 22001AA  22192.30462739  .00001359  00000-0  10349-3 0  9995,2 50827  53.2175  52.8890 0002068  72.1688 287.9530 15.08841286 28509,6917.876,95.437,541.172,538.311,0.0
50827.0,STARLINK-3329,PAYLOAD,2022-07-11 20:01:45,15.08832718,0.0002028,53.2173,50.5106,72.7385,287.3829,3.7695e-05,3.12e-06,0.0,0 STARLINK-3329,1 50827U 22001AA  22192.83455586  .00000312  00000-0  37695-4 0  9997,2 50827  53.2173  50.5106 0002028  72.7385 287.3829 15.08832718 29852,6917.903,95.438,541.1709999999998,538.365,0.0
